start=new Date('2021-09-05T00:00:00.000Z').valueOf();
sats=[{"OBJECT_ID":"2020-035BF","MEAN_MOTION":"15.06393407","EPOCH":"2021-09-04T08:57:05.835744","FILE":"3108585","MEAN_MOTION_DDOT":"0.0000000000000","GP_ID":"184076524","TLE_LINE1":"1 45710U 20035BF  21247.37298421 -.00000745  00000-0 -31166-4 0  9998","ELEMENT_SET_NO":"999","TIME_SYSTEM":"UTC","REF_FRAME":"TEME","CENTER_NAME":"EARTH","ARG_OF_PERICENTER":"61.4755","ECCENTRICITY":"0.00010070","MEAN_MOTION_DOT":"-0.00000745","PERIAPSIS":"546.536","LAUNCH_DATE":"2020-06-04","RA_OF_ASC_NODE":"231.7216","TLE_LINE2":"2 45710  53.0545 231.7216 0001007  61.4755 298.6336 15.06393407 70865","MEAN_ELEMENT_THEORY":"SGP4","REV_AT_EPOCH":"7086","BSTAR":"-0.00003116600000","DECAY_DATE":null,"RCS_SIZE":"LARGE","CLASSIFICATION_TYPE":"U","PERIOD":"95.593","APOAPSIS":"547.931","OBJECT_TYPE":"PAYLOAD","SITE":"AFETR","INCLINATION":"53.0545","NORAD_CAT_ID":"45710","MEAN_ANOMALY":"298.6336","SEMIMAJOR_AXIS":"6925.369","OBJECT_NAME":"STARLINK-1423","EPHEMERIS_TYPE":"0","COUNTRY_CODE":"US"},{"TLE_LINE1":"1 45711U 20035BG  21247.42090653  .00000814  00000-0  73550-4 0  9990","GP_ID":"184076773","MEAN_MOTION_DDOT":"0.0000000000000","ELEMENT_SET_NO":"999","FILE":"3108585","MEAN_MOTION":"15.06389164","EPOCH":"2021-09-04T10:06:06.324192","OBJECT_ID":"2020-035BG","LAUNCH_DATE":"2020-06-04","PERIAPSIS":"546.362","MEAN_MOTION_DOT":"0.00000814","ECCENTRICITY":"0.00012770","BSTAR":"0.00007355000000","MEAN_ELEMENT_THEORY":"SGP4","REV_AT_EPOCH":"7086","RA_OF_ASC_NODE":"231.5041","TLE_LINE2":"2 45711  53.0552 231.5041 0001277  51.1268 308.9834 15.06389164 70865","TIME_SYSTEM":"UTC","ARG_OF_PERICENTER":"51.1268","CENTER_NAME":"EARTH","REF_FRAME":"TEME","OBJECT_TYPE":"PAYLOAD","INCLINATION":"53.0552","SITE":"AFETR","APOAPSIS":"548.131","PERIOD":"95.593","CLASSIFICATION_TYPE":"U","DECAY_DATE":null,"RCS_SIZE":"LARGE","MEAN_ANOMALY":"308.9834","COUNTRY_CODE":"US","EPHEMERIS_TYPE":"0","OBJECT_NAME":"STARLINK-1433","SEMIMAJOR_AXIS":"6925.382","NORAD_CAT_ID":"45711"},{"TLE_LINE1":"1 45712U 20035BH  21247.48356403 -.00000867  00000-0 -39326-4 0  9998","MEAN_MOTION_DDOT":"0.0000000000000","GP_ID":"184076023","ELEMENT_SET_NO":"999","FILE":"3108585","EPOCH":"2021-09-04T11:36:19.932192","MEAN_MOTION":"15.06393268","OBJECT_ID":"2020-035BH","LAUNCH_DATE":"2020-06-04","PERIAPSIS":"546.479","ECCENTRICITY":"0.00010900","MEAN_MOTION_DOT":"-0.00000867","BSTAR":"-0.00003932600000","MEAN_ELEMENT_THEORY":"SGP4","REV_AT_EPOCH":"7088","TLE_LINE2":"2 45712  53.0538 231.2226 0001090  44.6869 315.4208 15.06393268 70889","RA_OF_ASC_NODE":"231.2226","TIME_SYSTEM":"UTC","ARG_OF_PERICENTER":"44.6869","CENTER_NAME":"EARTH","REF_FRAME":"TEME","OBJECT_TYPE":"PAYLOAD","INCLINATION":"53.0538","SITE":"AFETR","APOAPSIS":"547.989","PERIOD":"95.593","CLASSIFICATION_TYPE":"U","DECAY_DATE":null,"RCS_SIZE":"LARGE","MEAN_ANOMALY":"315.4208","COUNTRY_CODE":"US","EPHEMERIS_TYPE":"0","OBJECT_NAME":"STARLINK-1434","SEMIMAJOR_AXIS":"6925.369","NORAD_CAT_ID":"45712"},{"TIME_SYSTEM":"UTC","ARG_OF_PERICENTER":"54.6428","CENTER_NAME":"EARTH","REF_FRAME":"TEME","PERIAPSIS":"546.442","LAUNCH_DATE":"2020-06-04","ECCENTRICITY":"0.00011520","MEAN_MOTION_DOT":"-0.00000617","BSTAR":"-0.00002254700000","MEAN_ELEMENT_THEORY":"SGP4","REV_AT_EPOCH":"7059","RA_OF_ASC_NODE":"251.1340","TLE_LINE2":"2 45713  53.0548 251.1340 0001152  54.6428 305.4668 15.06391417 70591","FILE":"3108585","MEAN_MOTION":"15.06391417","EPOCH":"2021-09-04T12:05:31.560864","OBJECT_ID":"2020-035BJ","TLE_LINE1":"1 45713U 20035BJ  21247.50383751 -.00000617  00000-0 -22547-4 0  9998","MEAN_MOTION_DDOT":"0.0000000000000","GP_ID":"184075772","ELEMENT_SET_NO":"999","NORAD_CAT_ID":"45713","MEAN_ANOMALY":"305.4668","EPHEMERIS_TYPE":"0","COUNTRY_CODE":"US","OBJECT_NAME":"STARLINK-1436","SEMIMAJOR_AXIS":"6925.375","APOAPSIS":"548.038","PERIOD":"95.593","CLASSIFICATION_TYPE":"U","DECAY_DATE":null,"RCS_SIZE":"LARGE","OBJECT_TYPE":"PAYLOAD","INCLINATION":"53.0548","SITE":"AFETR"},{"TIME_SYSTEM":"UTC","REF_FRAME":"TEME","ARG_OF_PERICENTER":"53.2775","CENTER_NAME":"EARTH","ECCENTRICITY":"0.00009740","MEAN_MOTION_DOT":"0.00001042","LAUNCH_DATE":"2020-06-04","PERIAPSIS":"546.546","MEAN_ELEMENT_THEORY":"SGP4","REV_AT_EPOCH":"7087","TLE_LINE2":"2 45714  53.0553 231.4716 0000974  53.2775 306.8304 15.06397643 70877","RA_OF_ASC_NODE":"231.4716","BSTAR":"0.00008881300000","MEAN_MOTION":"15.06397643","EPOCH":"2021-09-04T10:16:44.221440","OBJECT_ID":"2020-035BK","FILE":"3108585","GP_ID":"184077025","MEAN_MOTION_DDOT":"0.0000000000000","TLE_LINE1":"1 45714U 20035BK  21247.42828960  .00001042  00000-0  88813-4 0  9995","ELEMENT_SET_NO":"999","NORAD_CAT_ID":"45714","MEAN_ANOMALY":"306.8304","OBJECT_NAME":"STARLINK-1437","SEMIMAJOR_AXIS":"6925.356","EPHEMERIS_TYPE":"0","COUNTRY_CODE":"US","CLASSIFICATION_TYPE":"U","RCS_SIZE":"LARGE","DECAY_DATE":null,"APOAPSIS":"547.895","PERIOD":"95.592","OBJECT_TYPE":"PAYLOAD","INCLINATION":"53.0553","SITE":"AFETR"},{"NORAD_CAT_ID":"45716","MEAN_ANOMALY":"175.6396","EPHEMERIS_TYPE":"0","COUNTRY_CODE":"US","SEMIMAJOR_AXIS":"6781.229","OBJECT_NAME":"STARLINK-1439","PERIOD":"92.624","APOAPSIS":"407.666","DECAY_DATE":null,"RCS_SIZE":"LARGE","CLASSIFICATION_TYPE":"U","OBJECT_TYPE":"PAYLOAD","SITE":"AFETR","INCLINATION":"52.9965","TIME_SYSTEM":"UTC","CENTER_NAME":"EARTH","ARG_OF_PERICENTER":"184.4554","REF_FRAME":"TEME","PERIAPSIS":"398.521","LAUNCH_DATE":"2020-06-04","ECCENTRICITY":"0.00067430","MEAN_MOTION_DOT":"0.00047288","BSTAR":"0.00070342000000","RA_OF_ASC_NODE":"106.5030","TLE_LINE2":"2 45716  52.9965 106.5030 0006743 184.4554 175.6396 15.54677006 72633","REV_AT_EPOCH":"7263","MEAN_ELEMENT_THEORY":"SGP4","FILE":"3108751","OBJECT_ID":"2020-035BM","EPOCH":"2021-09-04T15:44:42.177408","MEAN_MOTION":"15.54677006","TLE_LINE1":"1 45716U 20035BM  21247.65604372  .00047288  00000-0  70342-3 0  9990","MEAN_MOTION_DDOT":"0.0000000000000","GP_ID":"184102726","ELEMENT_SET_NO":"999"},{"PERIOD":"95.593","APOAPSIS":"548.481","RCS_SIZE":"LARGE","DECAY_DATE":null,"CLASSIFICATION_TYPE":"U","SITE":"AFETR","INCLINATION":"53.0540","OBJECT_TYPE":"PAYLOAD","NORAD_CAT_ID":"45730","COUNTRY_CODE":"US","EPHEMERIS_TYPE":"0","SEMIMAJOR_AXIS":"6925.367","OBJECT_NAME":"STARLINK-1461","MEAN_ANOMALY":"260.5913","FILE":"3108751","OBJECT_ID":"2020-038A","EPOCH":"2021-09-04T16:54:50.508864","MEAN_MOTION":"15.06394009","ELEMENT_SET_NO":"999","TLE_LINE1":"1 45730U 20038A   21247.70475126  .00000908  00000-0  79887-4 0  9990","MEAN_MOTION_DDOT":"0.0000000000000","GP_ID":"184103478","CENTER_NAME":"EARTH","ARG_OF_PERICENTER":"99.5279","REF_FRAME":"TEME","TIME_SYSTEM":"UTC","BSTAR":"0.00007988700000","TLE_LINE2":"2 45730  53.0540  70.2223 0001804  99.5279 260.5913 15.06394009 67969","RA_OF_ASC_NODE":"70.2223","REV_AT_EPOCH":"6796","MEAN_ELEMENT_THEORY":"SGP4","PERIAPSIS":"545.983","LAUNCH_DATE":"2020-06-13","ECCENTRICITY":"0.00018040","MEAN_MOTION_DOT":"0.00000908"},{"LAUNCH_DATE":"2020-06-13","PERIAPSIS":"546.226","ECCENTRICITY":"0.00014800","MEAN_MOTION_DOT":"0.00000018","BSTAR":"0.00002011500000","RA_OF_ASC_NODE":"71.0607","TLE_LINE2":"2 45731  53.0565  71.0607 0001480 108.3387 251.7763 15.06387723 67927","REV_AT_EPOCH":"6792","MEAN_ELEMENT_THEORY":"SGP4","TIME_SYSTEM":"UTC","CENTER_NAME":"EARTH","ARG_OF_PERICENTER":"108.3387","REF_FRAME":"TEME","TLE_LINE1":"1 45731U 20038B   21247.52042590  .00000018  00000-0  20115-4 0  9998","MEAN_MOTION_DDOT":"0.0000000000000","GP_ID":"184075773","ELEMENT_SET_NO":"999","FILE":"3108585","OBJECT_ID":"2020-038B","EPOCH":"2021-09-04T12:29:24.797760","MEAN_MOTION":"15.06387723","MEAN_ANOMALY":"251.7763","EPHEMERIS_TYPE":"0","COUNTRY_CODE":"US","SEMIMAJOR_AXIS":"6925.386","OBJECT_NAME":"STARLINK-1465","NORAD_CAT_ID":"45731","OBJECT_TYPE":"PAYLOAD","SITE":"AFETR","INCLINATION":"53.0565","PERIOD":"95.593","APOAPSIS":"548.276","DECAY_DATE":null,"RCS_SIZE":"LARGE","CLASSIFICATION_TYPE":"U"},{"OBJECT_TYPE":"PAYLOAD","INCLINATION":"53.0545","SITE":"AFETR","APOAPSIS":"548.672","PERIOD":"95.592","CLASSIFICATION_TYPE":"U","DECAY_DATE":null,"RCS_SIZE":"LARGE","MEAN_ANOMALY":"269.9920","EPHEMERIS_TYPE":"0","COUNTRY_CODE":"US","OBJECT_NAME":"STARLINK-1466","SEMIMAJOR_AXIS":"6925.336","NORAD_CAT_ID":"45732","TLE_LINE1":"1 45732U 20038C   21247.70840819  .00001372  00000-0  11098-3 0  9992","MEAN_MOTION_DDOT":"0.0000000000000","GP_ID":"184102477","ELEMENT_SET_NO":"999","FILE":"3108751","EPOCH":"2021-09-04T17:00:06.467616","MEAN_MOTION":"15.06403943","OBJECT_ID":"2020-038C","PERIAPSIS":"545.731","LAUNCH_DATE":"2020-06-13","ECCENTRICITY":"0.00021230","MEAN_MOTION_DOT":"0.00001372","BSTAR":"0.00011098000000","REV_AT_EPOCH":"6795","MEAN_ELEMENT_THEORY":"SGP4","RA_OF_ASC_NODE":"70.2066","TLE_LINE2":"2 45732  53.0545  70.2066 0002123  90.1312 269.9920 15.06403943 67959","TIME_SYSTEM":"UTC","ARG_OF_PERICENTER":"90.1312","CENTER_NAME":"EARTH","REF_FRAME":"TEME"},{"MEAN_MOTION_DDOT":"0.0000000000000","GP_ID":"184102727","TLE_LINE1":"1 45733U 20038D   21247.71580582  .00001510  00000-0  12026-3 0  9998","ELEMENT_SET_NO":"999","MEAN_MOTION":"15.06397254","EPOCH":"2021-09-04T17:10:45.622848","OBJECT_ID":"2020-038D","FILE":"3108751","ECCENTRICITY":"0.00018300","MEAN_MOTION_DOT":"0.00001510","LAUNCH_DATE":"2020-06-13","PERIAPSIS":"545.955","REV_AT_EPOCH":"6795","MEAN_ELEMENT_THEORY":"SGP4","RA_OF_ASC_NODE":"70.1786","TLE_LINE2":"2 45733  53.0553  70.1786 0001830  98.4550 261.6646 15.06397254 67957","BSTAR":"0.00012026000000","TIME_SYSTEM":"UTC","REF_FRAME":"TEME","ARG_OF_PERICENTER":"98.4550","CENTER_NAME":"EARTH","OBJECT_TYPE":"PAYLOAD","INCLINATION":"53.0553","SITE":"AFETR","CLASSIFICATION_TYPE":"U","DECAY_DATE":null,"RCS_SIZE":"LARGE","APOAPSIS":"548.489","PERIOD":"95.592","MEAN_ANOMALY":"261.6646","OBJECT_NAME":"STARLINK-1467","SEMIMAJOR_AXIS":"6925.357","COUNTRY_CODE":"US","EPHEMERIS_TYPE":"0","NORAD_CAT_ID":"45733"}];
